[{"OBJECT_NAME":"STARLINK-32314","OBJECT_ID":"2024-196C","EPOCH":"2026-03-09T18:49:42.531456","MEAN_MOTION":15.30195605,"ECCENTRICITY":0.00012004,"INCLINATION":53.1609,"RA_OF_ASC_NODE":100.7185,"ARG_OF_PERICENTER":95.4474,"MEAN_ANOMALY":264.6664,"EPHEMERIS_TYPE":0,"CLASSIFICATION_TYPE":"U","NORAD_CAT_ID":61709,"ELEMENT_SET_NO":999,"REV_AT_EPOCH":7717,"BSTAR":4.9948776e-5,"MEAN_MOTION_DOT":1.12e-5,"MEAN_MOTION_DDOT":0},{"OBJECT_NAME":"PEGASUS DEB","OBJECT_ID":"1994-029AG","EPOCH":"2026-03-09T11:16:42.963744","MEAN_MOTION":15.37636263,"ECCENTRICITY":0.0031206,"INCLINATION":82.0362,"RA_OF_ASC_NODE":86.2933,"ARG_OF_PERICENTER":155.6019,"MEAN_ANOMALY":204.671,"EPHEMERIS_TYPE":0,"CLASSIFICATION_TYPE":"U","NORAD_CAT_ID":23986,"ELEMENT_SET_NO":999,"REV_AT_EPOCH":61542,"BSTAR":0.00061808813,"MEAN_MOTION_DOT":0.00023279,"MEAN_MOTION_DDOT":0}]
